<?xml version="1.0"?>
<gpx xmlns:xsd="http://www.w3.org/2001/XMLSchema" xmlns:xsi="http://www.w3.org/2001/XMLSchema-instance" xsi:schemaLocation="http://www.topografix.com/GPX/1/1 http://www.topografix.com/GPX/1/1/gpx.xsd" version="1.1" creator="http://www.delorme.com" xmlns="http://www.topografix.com/GPX/1/1">
  <wpt lat="48.601198" lon="16.786165">
    <ele>164.599</ele>
    <time>2022-11-12T13:59:07Z</time>
    <name>Hauptstraße (L7) and Bahnstra</name>
    <desc />
  </wpt>
  <wpt lat="48.601219" lon="16.785878">
    <ele>164.599</ele>
    <time>2022-11-12T13:59:07Z</time>
    <name>Bebauung</name>
    <desc />
  </wpt>
  <wpt lat="49.177401" lon="16.487753">
    <ele>286.200</ele>
    <time>2022-11-12T13:59:08Z</time>
    <name>Popuvky</name>
    <desc />
  </wpt>
</gpx>